TOMORROW-S4             
1 62386U 24247K   26068.53305366  .00012677  00000+0  46927-3 0  9990
2 62386  44.9818 117.9996 0004434 210.4078 149.6548 15.27717249 67702
STARLINK-34224          
1 64251U 25119U   26068.04561177  .00037960  00000+0  13817-2 0  9995
2 64251  43.0030 310.4451 0001835 257.2623 102.8023 15.27583101 44076
